{"type": "FeatureCollection", "features": [ {"type": "Feature", "properties": {"norad_id": 66355, "name": "STARLINK-35861", "group": "last-30-days", "lat": 24.3743509529777, "lon": -20.768506512989365, "alt_km": 379.5036947150538, "timestamp": "2025-12-03T19:33:05.754916+00:00", "meta": {"OBJECT_NAME": "STARLINK-35861", "OBJECT_ID": "2025-254H", "EPOCH": "2025-12-03T12:00:02.998944", "MEAN_MOTION": 15.63068403, "ECCENTRICITY": 0.000129, "INCLINATION": 53.1595, "RA_OF_ASC_NODE": 320.9078, "ARG_OF_PERICENTER": 61.2138, "MEAN_ANOMALY": 359.3682, "EPHEMERIS_TYPE": 0, "CLASSIFICATION_TYPE": "U", "NORAD_CAT_ID": 66355, "ELEMENT_SET_NO": 999, "REV_AT_EPOCH": 543, "BSTAR": -0.025013, "MEAN_MOTION_DOT": -0.02033791, "MEAN_MOTION_DDOT": 0}, "tle": {"line1": "1 66355U 25254H   25337.50003471 -.02033791  00000+0 -25013-1 0  9991", "line2": "2 66355  53.1595 320.9078 0001290  61.2138 359.3682 15.63068403  5431"}}, "geometry": {"type": "Point", "coordinates": [-20.768506512989365, 24.3743509529777]}}, {"type": "Feature", "properties": {"norad_id": 66356, "name": "STARLINK-35851", "group": "last-30-days", "lat": 25.81177312187369, "lon": -19.36983677654742, "alt_km": 379.3142820920493, "timestamp": "2025-12-03T19:33:05.754926+00:00", "meta": {"OBJECT_NAME": "STARLINK-35851", "OBJECT_ID": "2025-254J", "EPOCH": "2025-12-03T12:00:02.998944", "MEAN_MOTION": 15.63067409, "ECCENTRICITY": 0.0001235, "INCLINATION": 53.1595, "RA_OF_ASC_NODE": 320.9029, "ARG_OF_PERICENTER": 65.277, "MEAN_ANOMALY": 357.2219, "EPHEMERIS_TYPE": 0, "CLASSIFICATION_TYPE": "U", "NORAD_CAT_ID": 66356, "ELEMENT_SET_NO": 999, "REV_AT_EPOCH": 543, "BSTAR": -0.024981, "MEAN_MOTION_DOT": -0.02031387, "MEAN_MOTION_DDOT": 0}, "tle": {"line1": "1 66356U 25254J   25337.50003471 -.02031387  00000+0 -24981-1 0  9994", "line2": "2 66356  53.1595 320.9029 0001235  65.2770 357.2219 15.63067409  5431"}}, "geometry": {"type": "Point", "coordinates": [-19.36983677654742, 25.81177312187369]}}, {"type": "Feature", "properties": {"norad_id": 66357, "name": "STARLINK-35817", "group": "last-30-days", "lat": 27.23549493100239, "lon": -17.93545773307332, "alt_km": 379.08916266124197, "timestamp": "2025-12-03T19:33:05.754936+00:00", "meta": {"OBJECT_NAME": "STARLINK-35817", "OBJECT_ID": "2025-254K", "EPOCH": "2025-12-03T12:00:02.998944", "MEAN_MOTION": 15.63068173, "ECCENTRICITY": 0.0001223, "INCLINATION": 53.1594, "RA_OF_ASC_NODE": 320.8992, "ARG_OF_PERICENTER": 67.4264, "MEAN_ANOMALY": 356.989, "EPHEMERIS_TYPE": 0, "CLASSIFICATION_TYPE": "U", "NORAD_CAT_ID": 66357, "ELEMENT_SET_NO": 999, "REV_AT_EPOCH": 543, "BSTAR": -0.024996, "MEAN_MOTION_DOT": -0.02032514, "MEAN_MOTION_DDOT": 0}, "tle": {"line1": "1 66357U 25254K   25337.50003471 -.02032514  00000+0 -24996-1 0  9994", "line2": "2 66357  53.1594 320.8992 0001223  67.4264 356.9890 15.63068173  5438"}}, "geometry": {"type": "Point", "coordinates": [-17.93545773307332, 27.23549493100239]}}, {"type": "Feature", "properties": {"norad_id": 66358, "name": "STARLINK-35807", "group": "last-30-days", "lat": 28.645303213699606, "lon": -16.46358599724816, "alt_km": 378.81422221118555, "timestamp": "2025-12-03T19:33:05.754947+00:00", "meta": {"OBJECT_NAME": "STARLINK-35807", "OBJECT_ID": "2025-254L", "EPOCH": "2025-12-03T12:00:02.998944", "MEAN_MOTION": 15.6307277, "ECCENTRICITY": 0.0001279, "INCLINATION": 53.1592, "RA_OF_ASC_NODE": 320.8946, "ARG_OF_PERICENTER": 67.3125, "MEAN_ANOMALY": 359.0198, "EPHEMERIS_TYPE": 0, "CLASSIFICATION_TYPE": "U", "NORAD_CAT_ID": 66358, "ELEMENT_SET_NO": 999, "REV_AT_EPOCH": 543, "BSTAR": -0.025106, "MEAN_MOTION_DOT": -0.02040672, "MEAN_MOTION_DDOT": 0}, "tle": {"line1": "1 66358U 25254L   25337.50003471 -.02040672  00000+0 -25106-1 0  9993", "line2": "2 66358  53.1592 320.8946 0001279  67.3125 359.0198 15.63072770  5435"}}, "geometry": {"type": "Point", "coordinates": [-16.46358599724816, 28.645303213699606]}}, {"type": "Feature", "properties": {"norad_id": 66359, "name": "STARLINK-35805", "group": "last-30-days", "lat": 30.03838304390822, "lon": -14.95130412071147, "alt_km": 378.5781193453331, "timestamp": "2025-12-03T19:33:05.754957+00:00", "meta": {"OBJECT_NAME": "STARLINK-35805", "OBJECT_ID": "2025-254M", "EPOCH": "2025-12-03T12:00:02.998944", "MEAN_MOTION": 15.63074008, "ECCENTRICITY": 0.0001266, "INCLINATION": 53.1594, "RA_OF_ASC_NODE": 320.8911, "ARG_OF_PERICENTER": 67.0161, "MEAN_ANOMALY": 1.233, "EPHEMERIS_TYPE": 0, "CLASSIFICATION_TYPE": "U", "NORAD_CAT_ID": 66359, "ELEMENT_SET_NO": 999, "REV_AT_EPOCH": 540, "BSTAR": -0.025133, "MEAN_MOTION_DOT": -0.02042698, "MEAN_MOTION_DDOT": 0}, "tle": {"line1": "1 66359U 25254M   25337.50003471 -.02042698  00000+0 -25133-1 0  9994", "line2": "2 66359  53.1594 320.8911 0001266  67.0161   1.2330 15.63074008  5400"}}, "geometry": {"type": "Point", "coordinates": [-14.95130412071147, 30.03838304390822]}}, {"type": "Feature", "properties": {"norad_id": 66360, "name": "STARLINK-35823", "group": "last-30-days", "lat": 32.76766944345887, "lon": -11.798042646078997, "alt_km": 378.145790432367, "timestamp": "2025-12-03T19:33:05.754967+00:00", "meta": {"OBJECT_NAME": "STARLINK-35823", "OBJECT_ID": "2025-254N", "EPOCH": "2025-12-03T12:00:02.998944", "MEAN_MOTION": 15.63069953, "ECCENTRICITY": 0.0001208, "INCLINATION": 53.1592, "RA_OF_ASC_NODE": 320.8823, "ARG_OF_PERICENTER": 68.1853, "MEAN_ANOMALY": 3.8979, "EPHEMERIS_TYPE": 0, "CLASSIFICATION_TYPE": "U", "NORAD_CAT_ID": 66360, "ELEMENT_SET_NO": 999, "REV_AT_EPOCH": 543, "BSTAR": -0.025045, "MEAN_MOTION_DOT": -0.02036115, "MEAN_MOTION_DDOT": 0}, "tle": {"line1": "1 66360U 25254N   25337.50003471 -.02036115  00000+0 -25045-1 0  9995", "line2": "2 66360  53.1592 320.8823 0001208  68.1853   3.8979 15.63069953  5431"}}, "geometry": {"type": "Point", "coordinates": [-11.798042646078997, 32.76766944345887]}}, {"type": "Feature", "properties": {"norad_id": 66361, "name": "STARLINK-35813", "group": "last-30-days", "lat": 31.413011460299685, "lon": -13.396751331907545, "alt_km": 378.35386464292696, "timestamp": "2025-12-03T19:33:05.754977+00:00", "meta": {"OBJECT_NAME": "STARLINK-35813", "OBJECT_ID": "2025-254P", "EPOCH": "2025-12-03T12:00:02.998944", "MEAN_MOTION": 15.63077106, "ECCENTRICITY": 0.0001288, "INCLINATION": 53.1593, "RA_OF_ASC_NODE": 320.8873, "ARG_OF_PERICENTER": 70.785, "MEAN_ANOMALY": 359.3803, "EPHEMERIS_TYPE": 0, "CLASSIFICATION_TYPE": "U", "NORAD_CAT_ID": 66361, "ELEMENT_SET_NO": 999, "REV_AT_EPOCH": 543, "BSTAR": -0.025198, "MEAN_MOTION_DOT": -0.02047575, "MEAN_MOTION_DDOT": 0}, "tle": {"line1": "1 66361U 25254P   25337.50003471 -.02047575  00000+0 -25198-1 0  9997", "line2": "2 66361  53.1593 320.8873 0001288  70.7850 359.3803 15.63077106  5436"}}, "geometry": {"type": "Point", "coordinates": [-13.396751331907545, 31.413011460299685]}}, {"type": "Feature", "properties": {"norad_id": 66362, "name": "STARLINK-35822", "group": "last-30-days", "lat": 35.41246193523536, "lon": -8.44615184294009, "alt_km": 377.5716483074748, "timestamp": "2025-12-03T19:33:05.754987+00:00", "meta": {"OBJECT_NAME": "STARLINK-35822", "OBJECT_ID": "2025-254Q", "EPOCH": "2025-12-03T12:00:02.998944", "MEAN_MOTION": 15.6306742, "ECCENTRICITY": 0.0001387, "INCLINATION": 53.1588, "RA_OF_ASC_NODE": 320.8751, "ARG_OF_PERICENTER": 67.2242, "MEAN_ANOMALY": 8.6934, "EPHEMERIS_TYPE": 0, "CLASSIFICATION_TYPE": "U", "NORAD_CAT_ID": 66362, "ELEMENT_SET_NO": 999, "REV_AT_EPOCH": 543, "BSTAR": -0.025004, "MEAN_MOTION_DOT": -0.02033159, "MEAN_MOTION_DDOT": 0}, "tle": {"line1": "1 66362U 25254Q   25337.50003471 -.02033159  00000+0 -25004-1 0  9997", "line2": "2 66362  53.1588 320.8751 0001387  67.2242   8.6934 15.63067420  5439"}}, "geometry": {"type": "Point", "coordinates": [-8.44615184294009, 35.41246193523536]}}, {"type": "Feature", "properties": {"norad_id": 66363, "name": "STARLINK-35806", "group": "last-30-days", "lat": 34.10174512416785, "lon": -10.148171931664765, "alt_km": 377.81790693853145, "timestamp": "2025-12-03T19:33:05.754997+00:00", "meta": {"OBJECT_NAME": "STARLINK-35806", "OBJECT_ID": "2025-254R", "EPOCH": "2025-12-03T12:00:02.998944", "MEAN_MOTION": 15.63069742, "ECCENTRICITY": 0.0001344, "INCLINATION": 53.1592, "RA_OF_ASC_NODE": 320.8788, "ARG_OF_PERICENTER": 66.2578, "MEAN_ANOMALY": 7.7422, "EPHEMERIS_TYPE": 0, "CLASSIFICATION_TYPE": "U", "NORAD_CAT_ID": 66363, "ELEMENT_SET_NO": 999, "REV_AT_EPOCH": 540, "BSTAR": -0.025041, "MEAN_MOTION_DOT": -0.02035922, "MEAN_MOTION_DDOT": 0}, "tle": {"line1": "1 66363U 25254R   25337.50003471 -.02035922  00000+0 -25041-1 0  9999", "line2": "2 66363  53.1592 320.8788 0001344  66.2578   7.7422 15.63069742  5407"}}, "geometry": {"type": "Point", "coordinates": [-10.148171931664765, 34.10174512416785]}}, {"type": "Feature", "properties": {"norad_id": 66364, "name": "STARLINK-35797", "group": "last-30-days", "lat": 36.700479730313816, "lon": -6.686752729072978, "alt_km": 377.4330857938321, "timestamp": "2025-12-03T19:33:05.755008+00:00", "meta": {"OBJECT_NAME": "STARLINK-35797", "OBJECT_ID": "2025-254S", "EPOCH": "2025-12-03T12:00:02.998944", "MEAN_MOTION": 15.6307433, "ECCENTRICITY": 0.0001283, "INCLINATION": 53.159, "RA_OF_ASC_NODE": 320.8708, "ARG_OF_PERICENTER": 69.1861, "MEAN_ANOMALY": 8.6463, "EPHEMERIS_TYPE": 0, "CLASSIFICATION_TYPE": "U", "NORAD_CAT_ID": 66364, "ELEMENT_SET_NO": 999, "REV_AT_EPOCH": 543, "BSTAR": -0.02513, "MEAN_MOTION_DOT": -0.02042525, "MEAN_MOTION_DDOT": 0}, "tle": {"line1": "1 66364U 25254S   25337.50003471 -.02042525  00000+0 -25130-1 0  9996", "line2": "2 66364  53.1590 320.8708 0001283  69.1861   8.6463 15.63074330  5434"}}, "geometry": {"type": "Point", "coordinates": [-6.686752729072978, 36.700479730313816]}}]}